OBJECT_NAME,OBJECT_ID,EPOCH,MEAN_MOTION,ECCENTRICITY,INCLINATION,RA_OF_ASC_NODE,ARG_OF_PERICENTER,MEAN_ANOMALY,EPHEMERIS_TYPE,CLASSIFICATION_TYPE,NORAD_CAT_ID,ELEMENT_SET_NO,REV_AT_EPOCH,BSTAR,MEAN_MOTION_DOT,MEAN_MOTION_DDOT
TIANMU-1 20,2023-208B,2026-07-22T13:43:42.496896,15.33246503,.00070517,97.4466,320.7425,185.2591,174.8579,0,U,58661,999,14284,.27049387E-3,.8616E-4,0
TIANMU-1 21,2023-208C,2026-07-22T15:16:21.249984,15.35650594,.00073934,97.4526,323.6441,177.7130,182.4148,0,U,58662,999,14300,.29268035E-3,.10074E-3,0
TIANMU-1 22,2023-208D,2026-07-22T13:20:23.856288,15.31500753,.00034392,97.4519,319.9592,188.9322,171.1858,0,U,58663,999,14274,.26276783E-3,.7916E-4,0
TIANMU-1 15,2024-004A,2026-07-22T14:49:53.641344,15.26967471,.00066915,97.4678,29.8100,198.7546,161.3447,0,U,58700,999,14118,.21176445E-3,.5534E-4,0
TIANMU-1 16,2024-004B,2026-07-22T14:34:00.094656,15.27070212,.00049453,97.4626,29.0116,212.5653,147.5281,0,U,58701,999,14118,.20387469E-3,.534E-4,0
TIANMU-1 17,2024-004C,2026-07-22T14:13:06.715776,15.27068147,.00043616,97.4653,29.4949,217.5318,142.5617,0,U,58702,999,14117,.21531545E-3,.5644E-4,0
TIANMU-1 18,2024-004D,2026-07-22T15:13:38.398080,15.26982256,.00044403,97.4670,29.8004,193.8987,166.2130,0,U,58703,999,14118,.19950462E-3,.521E-4,0
INSAT-3DS,2024-033A,2026-07-22T10:00:02.573280,1.00270650,.00013782,0.0729,263.0036,220.4797,48.7333,0,U,58990,999,4742,0,-.152E-5,0
METEOR-M2 4,2024-039A,2026-07-22T15:15:30.042432,14.22432663,.00082042,98.7031,162.4923,70.3200,289.8862,0,U,59051,999,12430,.17317054E-4,-.5E-7,0
GOES 19,2024-119A,2026-07-22T10:57:52.195104,1.00272219,.00003557,0.0200,128.6948,48.7723,212.0096,0,U,60133,999,731,0,-.245E-5,0
MTG-S1,2025-143A,2026-07-22T07:53:52.054944,1.00275765,.00031874,0.5807,346.7337,256.3657,175.1137,0,U,64723,999,377,0,-.3E-7,0
METOP-SGA1,2025-172A,2026-07-22T13:51:28.348416,14.21503300,.00014646,98.6623,262.5771,91.4721,268.6625,0,U,65159,999,4881,.25415706E-4,.12E-6,0
FENGYUN 3H,2025-219A,2026-07-22T06:34:41.948832,14.19925591,.00009909,98.6770,143.3622,63.3834,296.7444,0,U,65815,999,4236,.3066786E-4,.22E-6,0
