TIANMU-1 20             
1 58661U 23208B   26203.57201964  .00008616  00000+0  27049-3 0  9993
2 58661  97.4466 320.7425 0007051 185.2591 174.8579 15.33246503142843
TIANMU-1 21             
1 58662U 23208C   26203.63635706  .00010074  00000+0  29268-3 0  9992
2 58662  97.4526 323.6441 0007393 177.7130 182.4148 15.35650594143002
TIANMU-1 22             
1 58663U 23208D   26203.55583167  .00007916  00000+0  26277-3 0  9995
2 58663  97.4519 319.9592 0003439 188.9322 171.1858 15.31500753142744
TIANMU-1 15             
1 58700U 24004A   26203.61798196  .00005534  00000+0  21176-3 0  9996
2 58700  97.4678  29.8100 0006691 198.7546 161.3447 15.26967471141184
TIANMU-1 16             
1 58701U 24004B   26203.60694554  .00005340  00000+0  20387-3 0  9997
2 58701  97.4626  29.0116 0004945 212.5653 147.5281 15.27070212141182
TIANMU-1 17             
1 58702U 24004C   26203.59243884  .00005644  00000+0  21532-3 0  9992
2 58702  97.4653  29.4949 0004361 217.5318 142.5617 15.27068147141177
TIANMU-1 18             
1 58703U 24004D   26203.63447220  .00005210  00000+0  19950-3 0  9998
2 58703  97.4670  29.8004 0004440 193.8987 166.2130 15.26982256141188
INSAT-3DS               
1 58990U 24033A   26203.41669645 -.00000152  00000+0  00000+0 0  9994
2 58990   0.0729 263.0036 0001378 220.4797  48.7333  1.00270650 47427
METEOR-M2 4             
1 59051U 24039A   26203.63576438 -.00000005  00000+0  17317-4 0  9991
2 59051  98.7031 162.4923 0008204  70.3200 289.8862 14.22432663124309
GOES 19                 
1 60133U 24119A   26203.45685411 -.00000245  00000+0  00000+0 0  9997
2 60133   0.0200 128.6948 0000355  48.7723 212.0096  1.00272219  7314
MTG-S1                  
1 64723U 25143A   26203.32907471 -.00000003  00000+0  00000+0 0  9995
2 64723   0.5807 346.7337 0003187 256.3657 175.1137  1.00275765  3775
METOP-SGA1              
1 65159U 25172A   26203.57741144  .00000012  00000+0  25416-4 0  9993
2 65159  98.6623 262.5771 0001464  91.4721 268.6625 14.21503300 48816
FENGYUN 3H              
1 65815U 25219A   26203.27409663  .00000022  00000+0  30668-4 0  9994
2 65815  98.6770 143.3622 0000990  63.3834 296.7444 14.19925591 42367
